OBJECT_NAME,OBJECT_ID,EPOCH,MEAN_MOTION,ECCENTRICITY,INCLINATION,RA_OF_ASC_NODE,ARG_OF_PERICENTER,MEAN_ANOMALY,EPHEMERIS_TYPE,CLASSIFICATION_TYPE,NORAD_CAT_ID,ELEMENT_SET_NO,REV_AT_EPOCH,BSTAR,MEAN_MOTION_DOT,MEAN_MOTION_DDOT
IONOSFERA-M 2,2024-199B,2026-07-01T22:13:40.030464,14.22760342,.0000435,98.7153,55.8521,51.5990,308.5227,0,U,61736,999,13292,.47637882E-4,.63E-6,0
PRSC-EO1,2025-012A,2026-07-01T23:03:15.945408,15.17632153,.00057014,97.4221,255.1315,191.8404,168.2696,0,U,62725,999,8043,.42814841E-3,.8554E-4,0
BIOMASS,2025-090A,2026-07-01T18:19:10.848000,14.66988860,.0001206,98.0745,9.8640,90.1056,270.0287,0,U,63772,999,6282,.20136072E-3,.108E-4,0
GOSAT-GW (IBUKI GW),2025-141A,2026-07-01T22:00:58.558752,14.67556421,.00014661,98.0568,119.9950,85.7490,274.3882,0,U,64694,999,5400,.12733054E-3,.675E-5,0
IONOSFERA-M 3,2025-155A,2026-07-01T22:58:09.633216,14.21488935,.00018002,98.6032,144.4907,132.3716,227.7614,0,U,64876,999,4850,.40315368E-4,.45E-6,0
IONOSFERA-M 4,2025-155B,2026-07-01T23:48:17.786592,14.21491365,.00015375,98.6031,144.4418,111.8247,248.3094,0,U,64877,999,4850,.48938956E-4,.64E-6,0
MICROCARB,2025-156A,2026-07-01T14:58:09.843456,14.72858580,.00165113,97.9957,259.5164,214.8501,145.1627,0,U,64899,999,5009,.97692789E-4,.576E-5,0
CO3D 3,2025-156B,2026-07-01T20:47:12.240096,15.20208420,.00018444,97.4333,261.3481,112.0126,248.1306,0,U,64900,999,5176,.23103468E-3,.4938E-4,0
CO3D 4,2025-156C,2026-07-01T17:37:51.484224,15.20207998,.00008086,97.4335,261.2185,179.0147,181.1090,0,U,64901,999,5174,.12181646E-3,.2571E-4,0
CO3D 2,2025-156D,2026-07-01T21:34:11.654400,15.20210569,.00014505,97.4334,261.2791,95.2572,264.8829,0,U,64902,999,5176,.26631452E-3,.5703E-4,0
CO3D 1,2025-156E,2026-07-01T21:34:24.588480,15.20215319,.0001374,97.4334,261.2791,105.3696,254.7691,0,U,64903,999,5176,.23921059E-3,.5116E-4,0
PRSC-S1,2025-164A,2026-07-01T21:57:43.940160,15.06559906,.00050127,41.1287,204.8577,97.3929,262.7454,0,U,65055,999,5065,.22967297E-3,.3282E-4,0
SENTINEL-6B,2025-264A,2026-07-01T22:05:10.417344,12.80929981,.0007913,66.0412,104.5787,268.8935,91.1174,0,U,66514,999,2905,.38361589E-4,-.52E-6,0
CAS500-3,2025-274F,2026-07-01T17:41:19.176864,14.88356504,.00069193,97.7442,110.4571,73.0458,287.1517,0,U,66655,999,3231,.15334887E-3,.1366E-4,0
CSG-3,2026-001A,2026-07-01T23:36:41.251392,14.82163894,.0001502,97.8889,6.3715,95.8658,264.2727,0,U,67304,999,2665,.47173008E-4,.323E-5,0
PRSC-E03,2026-092A,2026-07-01T21:37:29.550144,15.06749256,.00032431,38.0021,2.9121,157.5355,202.5549,0,U,68835,999,1017,.23305685E-3,.3425E-4,0
CAS500-2,2026-100AK,2026-07-01T22:59:08.297952,15.20765365,.00090252,97.3887,80.5392,345.4009,14.6965,0,U,69013,999,905,.33747105E-3,.7373E-4,0
