IONOSFERA-M 2           
1 61736U 24199B   26182.92615776  .00000063  00000+0  47638-4 0  9990
2 61736  98.7153  55.8521 0000435  51.5990 308.5227 14.22760342132920
PRSC-EO1                
1 62725U 25012A   26182.96060122  .00008554  00000+0  42815-3 0  9991
2 62725  97.4221 255.1315 0005701 191.8404 168.2696 15.17632153 80438
BIOMASS                 
1 63772U 25090A   26182.76332000  .00001080  00000+0  20136-3 0  9994
2 63772  98.0745   9.8640 0001206  90.1056 270.0287 14.66988860 62827
GOSAT-GW (IBUKI GW)     
1 64694U 25141A   26182.91734443  .00000675  00000+0  12733-3 0  9992
2 64694  98.0568 119.9950 0001466  85.7490 274.3882 14.67556421 54005
IONOSFERA-M 3           
1 64876U 25155A   26182.95705594  .00000045  00000+0  40315-4 0  9997
2 64876  98.6032 144.4907 0001800 132.3716 227.7614 14.21488935 48503
IONOSFERA-M 4           
1 64877U 25155B   26182.99187253  .00000064  00000+0  48939-4 0  9999
2 64877  98.6031 144.4418 0001537 111.8247 248.3094 14.21491365 48500
MICROCARB               
1 64899U 25156A   26182.62372504  .00000576  00000+0  97693-4 0  9998
2 64899  97.9957 259.5164 0016511 214.8501 145.1627 14.72858580 50099
CO3D 3                  
1 64900U 25156B   26182.86611389  .00004938  00000+0  23103-3 0  9994
2 64900  97.4333 261.3481 0001844 112.0126 248.1306 15.20208420 51762
CO3D 4                  
1 64901U 25156C   26182.73462366  .00002571  00000+0  12182-3 0  9996
2 64901  97.4335 261.2185 0000808 179.0147 181.1090 15.20207998 51743
CO3D 2                  
1 64902U 25156D   26182.89874600  .00005703  00000+0  26631-3 0  9996
2 64902  97.4334 261.2791 0001450  95.2572 264.8829 15.20210569 51760
CO3D 1                  
1 64903U 25156E   26182.89889570  .00005116  00000+0  23921-3 0  9996
2 64903  97.4334 261.2791 0001374 105.3696 254.7691 15.20215319 51769
PRSC-S1                 
1 65055U 25164A   26182.91509190  .00003282  00000+0  22967-3 0  9995
2 65055  41.1287 204.8577 0005012  97.3929 262.7454 15.06559906 50658
SENTINEL-6B             
1 66514U 25264A   26182.92025946 -.00000052  00000+0  38362-4 0  9990
2 66514  66.0412 104.5787 0007913 268.8935  91.1174 12.80929981 29054
CAS500-3                
1 66655U 25274F   26182.73702751  .00001366  00000+0  15335-3 0  9994
2 66655  97.7442 110.4571 0006919  73.0458 287.1517 14.88356504 32318
CSG-3                   
1 67304U 26001A   26182.98381078  .00000323  00000+0  47173-4 0  9995
2 67304  97.8889   6.3715 0001502  95.8658 264.2727 14.82163894 26657
PRSC-E03                
1 68835U 26092A   26182.90103646  .00003425  00000+0  23306-3 0  9997
2 68835  38.0021   2.9121 0003243 157.5355 202.5549 15.06749256 10175
CAS500-2                
1 69013U 26100AK  26182.95773493  .00007373  00000+0  33747-3 0  9990
2 69013  97.3887  80.5392 0009025 345.4009  14.6965 15.20765365  9056
